start=new Date('2022-03-25T00:00:00.000Z').valueOf();
sats=[{"RCS_SIZE":"LARGE","MEAN_MOTION_DOT":"-0.00657255","OBJECT_NAME":"STARLINK-3206","CENTER_NAME":"EARTH","SEMIMAJOR_AXIS":"6861.729","CLASSIFICATION_TYPE":"U","ECCENTRICITY":"0.00013580","OBJECT_TYPE":"PAYLOAD","PERIAPSIS":"482.662","PERIOD":"94.278","RA_OF_ASC_NODE":"149.8419","ARG_OF_PERICENTER":"62.5144","INCLINATION":"53.2174","MEAN_MOTION":"15.27398639","LAUNCH_DATE":"2021-12-02","EPHEMERIS_TYPE":"0","COUNTRY_CODE":"US","MEAN_ANOMALY":"67.6509","NORAD_CAT_ID":"49764","APOAPSIS":"484.526","SITE":"AFETR","BSTAR":"-0.02604400000000","OBJECT_ID":"2021-115AS","MEAN_ELEMENT_THEORY":"SGP4","REF_FRAME":"TEME","DECAY_DATE":null,"TIME_SYSTEM":"UTC","REV_AT_EPOCH":"1852","MEAN_MOTION_DDOT":"0.0000000000000","FILE":"3372920","GP_ID":"199595579","ELEMENT_SET_NO":"999","EPOCH":"2022-03-25T00:00:02.000160","TLE_LINE2":"2 49764  53.2174 149.8419 0001358  62.5144  67.6509 15.27398639 18521","TLE_LINE1":"1 49764U 21115AS  22084.00002315 -.00657255  00000-0 -26044-1 0  9996"},{"NORAD_CAT_ID":"49765","MEAN_ANOMALY":"4.9429","APOAPSIS":"482.083","SITE":"AFETR","REF_FRAME":"TEME","MEAN_ELEMENT_THEORY":"SGP4","OBJECT_ID":"2021-115AT","BSTAR":"-0.02551000000000","TIME_SYSTEM":"UTC","DECAY_DATE":null,"MEAN_MOTION_DDOT":"0.0000000000000","REV_AT_EPOCH":"365","GP_ID":"199622364","FILE":"3373054","ELEMENT_SET_NO":"999","TLE_LINE1":"1 49765U 21115AT  22083.91667824 -.00659914  00000-0 -25510-1 0  9999","TLE_LINE2":"2 49765  53.2176 150.2200 0001362  52.4663   4.9429 15.28215602  3659","EPOCH":"2022-03-24T22:00:00.999936","MEAN_MOTION_DOT":"-0.00659914","RCS_SIZE":"LARGE","OBJECT_NAME":"STARLINK-3227","SEMIMAJOR_AXIS":"6859.284","CENTER_NAME":"EARTH","CLASSIFICATION_TYPE":"U","PERIOD":"94.228","RA_OF_ASC_NODE":"150.2200","ECCENTRICITY":"0.00013620","OBJECT_TYPE":"PAYLOAD","PERIAPSIS":"480.214","MEAN_MOTION":"15.28215602","INCLINATION":"53.2176","ARG_OF_PERICENTER":"52.4663","EPHEMERIS_TYPE":"0","COUNTRY_CODE":"US","LAUNCH_DATE":"2021-12-02"},{"MEAN_MOTION_DOT":"-0.00657231","RCS_SIZE":"LARGE","OBJECT_NAME":"STARLINK-3190","CENTER_NAME":"EARTH","SEMIMAJOR_AXIS":"6862.427","CLASSIFICATION_TYPE":"U","PERIAPSIS":"483.335","OBJECT_TYPE":"PAYLOAD","ECCENTRICITY":"0.00013950","RA_OF_ASC_NODE":"149.8435","PERIOD":"94.292","ARG_OF_PERICENTER":"57.7090","INCLINATION":"53.2174","MEAN_MOTION":"15.27165623","LAUNCH_DATE":"2021-12-02","COUNTRY_CODE":"US","EPHEMERIS_TYPE":"0","MEAN_ANOMALY":"63.5080","NORAD_CAT_ID":"49766","SITE":"AFETR","APOAPSIS":"485.249","BSTAR":"-0.02622900000000","OBJECT_ID":"2021-115AU","MEAN_ELEMENT_THEORY":"SGP4","REF_FRAME":"TEME","DECAY_DATE":null,"TIME_SYSTEM":"UTC","REV_AT_EPOCH":"1852","MEAN_MOTION_DDOT":"0.0000000000000","FILE":"3372918","GP_ID":"199596062","ELEMENT_SET_NO":"999","EPOCH":"2022-03-25T00:00:02.000160","TLE_LINE2":"2 49766  53.2174 149.8435 0001395  57.7090  63.5080 15.27165623 18522","TLE_LINE1":"1 49766U 21115AU  22084.00002315 -.00657231  00000-0 -26229-1 0  9997"},{"OBJECT_NAME":"STARLINK-3192","MEAN_MOTION_DOT":"-0.00657004","RCS_SIZE":"LARGE","SEMIMAJOR_AXIS":"6861.032","CENTER_NAME":"EARTH","PERIOD":"94.264","RA_OF_ASC_NODE":"149.8400","OBJECT_TYPE":"PAYLOAD","ECCENTRICITY":"0.00014340","PERIAPSIS":"481.913","CLASSIFICATION_TYPE":"U","EPHEMERIS_TYPE":"0","COUNTRY_CODE":"US","LAUNCH_DATE":"2021-12-02","MEAN_MOTION":"15.27631490","INCLINATION":"53.2174","ARG_OF_PERICENTER":"56.4173","APOAPSIS":"483.881","SITE":"AFETR","NORAD_CAT_ID":"49767","MEAN_ANOMALY":"82.5569","TIME_SYSTEM":"UTC","DECAY_DATE":null,"REF_FRAME":"TEME","OBJECT_ID":"2021-115AV","MEAN_ELEMENT_THEORY":"SGP4","BSTAR":"-0.02584800000000","GP_ID":"199595543","FILE":"3372930","MEAN_MOTION_DDOT":"0.0000000000000","REV_AT_EPOCH":"1852","TLE_LINE1":"1 49767U 21115AV  22084.00002315 -.00657004  00000-0 -25848-1 0  9992","TLE_LINE2":"2 49767  53.2174 149.8400 0001434  56.4173  82.5569 15.27631490 18520","EPOCH":"2022-03-25T00:00:02.000160","ELEMENT_SET_NO":"999"},{"FILE":"3372918","GP_ID":"199595558","REV_AT_EPOCH":"1852","MEAN_MOTION_DDOT":"0.0000000000000","EPOCH":"2022-03-25T00:00:02.000160","TLE_LINE2":"2 49768  53.2174 149.8458 0001354  56.4362  46.4661 15.26699514 18527","TLE_LINE1":"1 49768U 21115AW  22084.00002315 -.00657051  00000-0 -26597-1 0  9997","ELEMENT_SET_NO":"999","SITE":"AFETR","APOAPSIS":"486.618","MEAN_ANOMALY":"46.4661","NORAD_CAT_ID":"49768","DECAY_DATE":null,"TIME_SYSTEM":"UTC","BSTAR":"-0.02659700000000","OBJECT_ID":"2021-115AW","MEAN_ELEMENT_THEORY":"SGP4","REF_FRAME":"TEME","PERIAPSIS":"484.759","OBJECT_TYPE":"PAYLOAD","ECCENTRICITY":"0.00013540","RA_OF_ASC_NODE":"149.8458","PERIOD":"94.321","CLASSIFICATION_TYPE":"U","LAUNCH_DATE":"2021-12-02","COUNTRY_CODE":"US","EPHEMERIS_TYPE":"0","ARG_OF_PERICENTER":"56.4362","INCLINATION":"53.2174","MEAN_MOTION":"15.26699514","OBJECT_NAME":"STARLINK-3196","MEAN_MOTION_DOT":"-0.00657051","RCS_SIZE":"LARGE","CENTER_NAME":"EARTH","SEMIMAJOR_AXIS":"6863.824"},{"DECAY_DATE":null,"TIME_SYSTEM":"UTC","REF_FRAME":"TEME","BSTAR":"-0.02641100000000","OBJECT_ID":"2021-115AX","MEAN_ELEMENT_THEORY":"SGP4","APOAPSIS":"485.941","SITE":"AFETR","NORAD_CAT_ID":"49769","MEAN_ANOMALY":"56.3894","TLE_LINE2":"2 49769  53.2174 149.8449 0001385  55.7399  56.3894 15.26932534 18524","TLE_LINE1":"1 49769U 21115AX  22084.00002315 -.00657107  00000-0 -26411-1 0  9995","EPOCH":"2022-03-25T00:00:02.000160","ELEMENT_SET_NO":"999","GP_ID":"199595310","FILE":"3372901","MEAN_MOTION_DDOT":"0.0000000000000","REV_AT_EPOCH":"1852","SEMIMAJOR_AXIS":"6863.126","CENTER_NAME":"EARTH","OBJECT_NAME":"STARLINK-3208","MEAN_MOTION_DOT":"-0.00657107","RCS_SIZE":"LARGE","COUNTRY_CODE":"US","EPHEMERIS_TYPE":"0","LAUNCH_DATE":"2021-12-02","INCLINATION":"53.2174","MEAN_MOTION":"15.26932534","ARG_OF_PERICENTER":"55.7399","RA_OF_ASC_NODE":"149.8449","PERIOD":"94.307","OBJECT_TYPE":"PAYLOAD","PERIAPSIS":"484.040","ECCENTRICITY":"0.00013850","CLASSIFICATION_TYPE":"U"},{"MEAN_ANOMALY":"33.9043","NORAD_CAT_ID":"49770","SITE":"AFETR","APOAPSIS":"487.288","MEAN_ELEMENT_THEORY":"SGP4","OBJECT_ID":"2021-115AY","BSTAR":"-0.02678900000000","REF_FRAME":"TEME","TIME_SYSTEM":"UTC","DECAY_DATE":null,"REV_AT_EPOCH":"1852","MEAN_MOTION_DDOT":"0.0000000000000","FILE":"3372920","GP_ID":"199595578","ELEMENT_SET_NO":"999","EPOCH":"2022-03-25T00:00:02.000160","TLE_LINE1":"1 49770U 21115AY  22084.00002315 -.00657108  00000-0 -26789-1 0  9996","TLE_LINE2":"2 49770  53.2174 149.8465 0001312  59.6313  33.9043 15.26466563 18524","MEAN_MOTION_DOT":"-0.00657108","RCS_SIZE":"LARGE","OBJECT_NAME":"STARLINK-3191","CENTER_NAME":"EARTH","SEMIMAJOR_AXIS":"6864.522","CLASSIFICATION_TYPE":"U","PERIAPSIS":"485.487","OBJECT_TYPE":"PAYLOAD","ECCENTRICITY":"0.00013120","RA_OF_ASC_NODE":"149.8465","PERIOD":"94.336","ARG_OF_PERICENTER":"59.6313","MEAN_MOTION":"15.26466563","INCLINATION":"53.2174","LAUNCH_DATE":"2021-12-02","EPHEMERIS_TYPE":"0","COUNTRY_CODE":"US"},{"MEAN_ANOMALY":"19.0220","NORAD_CAT_ID":"49771","SITE":"AFETR","APOAPSIS":"487.939","BSTAR":"-0.02696900000000","OBJECT_ID":"2021-115AZ","MEAN_ELEMENT_THEORY":"SGP4","REF_FRAME":"TEME","DECAY_DATE":null,"TIME_SYSTEM":"UTC","REV_AT_EPOCH":"1852","MEAN_MOTION_DDOT":"0.0000000000000","FILE":"3372920","GP_ID":"199595586","ELEMENT_SET_NO":"999","EPOCH":"2022-03-25T00:00:02.000160","TLE_LINE2":"2 49771  53.2174 149.8469 0001242  65.0075  19.0220 15.26233437 18521","TLE_LINE1":"1 49771U 21115AZ  22084.00002315 -.00656862  00000-0 -26969-1 0  9993","MEAN_MOTION_DOT":"-0.00656862","RCS_SIZE":"LARGE","OBJECT_NAME":"STARLINK-3201","CENTER_NAME":"EARTH","SEMIMAJOR_AXIS":"6865.221","CLASSIFICATION_TYPE":"U","OBJECT_TYPE":"PAYLOAD","ECCENTRICITY":"0.00012420","PERIAPSIS":"486.233","RA_OF_ASC_NODE":"149.8469","PERIOD":"94.350","ARG_OF_PERICENTER":"65.0075","INCLINATION":"53.2174","MEAN_MOTION":"15.26233437","LAUNCH_DATE":"2021-12-02","EPHEMERIS_TYPE":"0","COUNTRY_CODE":"US"},{"OBJECT_NAME":"STARLINK-3317","RCS_SIZE":"LARGE","MEAN_MOTION_DOT":"-0.00527194","SEMIMAJOR_AXIS":"6898.259","CENTER_NAME":"EARTH","RA_OF_ASC_NODE":"259.1910","PERIOD":"95.032","PERIAPSIS":"518.970","OBJECT_TYPE":"PAYLOAD","ECCENTRICITY":"0.00016720","CLASSIFICATION_TYPE":"U","COUNTRY_CODE":"US","EPHEMERIS_TYPE":"0","LAUNCH_DATE":"2021-12-18","INCLINATION":"53.2172","MEAN_MOTION":"15.15282250","ARG_OF_PERICENTER":"44.1286","SITE":"AFWTR","APOAPSIS":"521.277","NORAD_CAT_ID":"50156","MEAN_ANOMALY":"271.7127","DECAY_DATE":null,"TIME_SYSTEM":"UTC","REF_FRAME":"TEME","BSTAR":"-0.02942000000000","OBJECT_ID":"2021-125A","MEAN_ELEMENT_THEORY":"SGP4","GP_ID":"199596364","FILE":"3372942","MEAN_MOTION_DDOT":"0.0000000000000","REV_AT_EPOCH":"1786","TLE_LINE2":"2 50156  53.2172 259.1910 0001672  44.1286 271.7127 15.15282250 17867","TLE_LINE1":"1 50156U 21125A   22084.00002315 -.00527194  00000-0 -29420-1 0  9993","EPOCH":"2022-03-25T00:00:02.000160","ELEMENT_SET_NO":"999"},{"RCS_SIZE":"LARGE","MEAN_MOTION_DOT":"0.00004518","OBJECT_NAME":"STARLINK-3313","SEMIMAJOR_AXIS":"6917.913","CENTER_NAME":"EARTH","CLASSIFICATION_TYPE":"U","RA_OF_ASC_NODE":"269.4559","PERIOD":"95.438","ECCENTRICITY":"0.00020290","OBJECT_TYPE":"PAYLOAD","PERIAPSIS":"538.374","INCLINATION":"53.2173","MEAN_MOTION":"15.08829437","ARG_OF_PERICENTER":"43.5206","COUNTRY_CODE":"US","EPHEMERIS_TYPE":"0","LAUNCH_DATE":"2021-12-18","NORAD_CAT_ID":"50157","MEAN_ANOMALY":"117.3014","SITE":"AFWTR","APOAPSIS":"541.181","REF_FRAME":"TEME","BSTAR":"0.00030186000000","OBJECT_ID":"2021-125B","MEAN_ELEMENT_THEORY":"SGP4","DECAY_DATE":null,"TIME_SYSTEM":"UTC","MEAN_MOTION_DDOT":"0.0000000000000","REV_AT_EPOCH":"360","GP_ID":"199621898","FILE":"3373054","ELEMENT_SET_NO":"999","TLE_LINE2":"2 50157  53.2173 269.4559 0002029  43.5206 117.3014 15.08829437  3607","TLE_LINE1":"1 50157U 21125B   22083.91667824  .00004518  00000-0  30186-3 0  9996","EPOCH":"2022-03-24T22:00:00.999936"}];
